{
  "type": "FeatureCollection",
  "features": [
    {
      "type": "Feature",
      "properties": {
        "norad_id": 44204,
        "name": "BEIDOU-3 IGSO-1 (C38)",
        "group": "gnss",
        "lat": -31.006305106069036,
        "lon": 17.91817245249494,
        "alt_km": 35820.15288761601,
        "timestamp": "2025-12-17T10:52:54.596537+00:00",
        "meta_object_name": "BEIDOU-3 IGSO-1 (C38)",
        "meta_object_id": "2019-023A",
        "meta_epoch": "2025-11-19T14:15:02.708640",
        "meta_mean_motion": 1.00252177,
        "meta_eccentricity": 0.0026966,
        "meta_inclination": 58.4003,
        "meta_ra_of_asc_node": 39.8168,
        "meta_arg_of_pericenter": 221.2202,
        "meta_mean_anomaly": 126.9723,
        "meta_ephemeris_type": 0,
        "meta_classification_type": "U",
        "meta_norad_cat_id": 44204,
        "meta_element_set_no": 999,
        "meta_rev_at_epoch": 510,
        "meta_bstar": 0,
        "meta_mean_motion_dot": -2.26e-06,
        "meta_mean_motion_ddot": 0,
        "tle_line1": "1 44204U 19023A   25323.59378135 -.00000226  00000+0  00000+0 0  9994",
        "tle_line2": "2 44204  58.4003  39.8168 0026966 221.2202 126.9723  1.00252177  5102"
      },
      "geometry": {
        "type": "Point",
        "coordinates": [
          17.91817245249494,
          -31.006305106069036
        ]
      }
    },
    {
      "type": "Feature",
      "properties": {
        "norad_id": 44231,
        "name": "BEIDOU-2 G8 (C01)",
        "group": "gnss",
        "lat": -1.0706333366031968,
        "lon": 34.073445958358946,
        "alt_km": 35769.660323838085,
        "timestamp": "2025-12-17T10:52:54.596553+00:00",
        "meta_object_name": "BEIDOU-2 G8 (C01)",
        "meta_object_id": "2019-027A",
        "meta_epoch": "2025-12-16T20:53:33.437760",
        "meta_mean_motion": 1.00267152,
        "meta_eccentricity": 0.00087571,
        "meta_inclination": 1.6722,
        "meta_ra_of_asc_node": 74.7225,
        "meta_arg_of_pericenter": 258.6076,
        "meta_mean_anomaly": 210.2511,
        "meta_ephemeris_type": 0,
        "meta_classification_type": "U",
        "meta_norad_cat_id": 44231,
        "meta_element_set_no": 999,
        "meta_rev_at_epoch": 2425,
        "meta_bstar": 0,
        "meta_mean_motion_dot": -2.26e-06,
        "meta_mean_motion_ddot": 0,
        "tle_line1": "1 44231U 19027A   25350.87052590 -.00000226  00000+0  00000+0 0  9993",
        "tle_line2": "2 44231   1.6722  74.7225 0008757 258.6076 210.2511  1.00267152 24251"
      },
      "geometry": {
        "type": "Point",
        "coordinates": [
          34.073445958358946,
          -1.0706333366031968
        ]
      }
    },
    {
      "type": "Feature",
      "properties": {
        "norad_id": 44299,
        "name": "COSMOS 2534 (758)",
        "group": "gnss",
        "lat": 34.44515073689455,
        "lon": -142.02992140794407,
        "alt_km": 19135.38661750532,
        "timestamp": "2025-12-17T10:52:54.596565+00:00",
        "meta_object_name": "COSMOS 2534 (758)",
        "meta_object_id": "2019-030A",
        "meta_epoch": "2025-12-15T05:49:22.027584",
        "meta_mean_motion": 2.13102219,
        "meta_eccentricity": 0.00088073,
        "meta_inclination": 64.3657,
        "meta_ra_of_asc_node": 198.8086,
        "meta_arg_of_pericenter": 283.8967,
        "meta_mean_anomaly": 218.9019,
        "meta_ephemeris_type": 0,
        "meta_classification_type": "U",
        "meta_norad_cat_id": 44299,
        "meta_element_set_no": 999,
        "meta_rev_at_epoch": 5100,
        "meta_bstar": 0,
        "meta_mean_motion_dot": 1.03e-06,
        "meta_mean_motion_ddot": 0,
        "tle_line1": "1 44299U 19030A   25349.24261606  .00000103  00000+0  00000+0 0  9993",
        "tle_line2": "2 44299  64.3657 198.8086 0008807 283.8967 218.9019  2.13102219 51004"
      },
      "geometry": {
        "type": "Point",
        "coordinates": [
          -142.02992140794407,
          34.44515073689455
        ]
      }
    },
    {
      "type": "Feature",
      "properties": {
        "norad_id": 44337,
        "name": "BEIDOU-3 IGSO-2 (C39)",
        "group": "gnss",
        "lat": -23.170726542103015,
        "lon": -2.226393053145237,
        "alt_km": 35633.41581544752,
        "timestamp": "2025-12-17T10:52:54.596577+00:00",
        "meta_object_name": "BEIDOU-3 IGSO-2 (C39)",
        "meta_object_id": "2019-035A",
        "meta_epoch": "2025-12-16T20:46:49.083168",
        "meta_mean_motion": 1.00270089,
        "meta_eccentricity": 0.00374411,
        "meta_inclination": 55.2266,
        "meta_ra_of_asc_node": 160.465,
        "meta_arg_of_pericenter": 202.4261,
        "meta_mean_anomaly": 154.0265,
        "meta_ephemeris_type": 0,
        "meta_classification_type": "U",
        "meta_norad_cat_id": 44337,
        "meta_element_set_no": 999,
        "meta_rev_at_epoch": 2383,
        "meta_bstar": 0,
        "meta_mean_motion_dot": -3.9e-07,
        "meta_mean_motion_ddot": 0,
        "tle_line1": "1 44337U 19035A   25350.86584587 -.00000039  00000+0  00000+0 0  9996",
        "tle_line2": "2 44337  55.2266 160.4650 0037441 202.4261 154.0265  1.00270089 23833"
      },
      "geometry": {
        "type": "Point",
        "coordinates": [
          -2.226393053145237,
          -23.170726542103015
        ]
      }
    },
    {
      "type": "Feature",
      "properties": {
        "norad_id": 44506,
        "name": "GPS BIII-2  (PRN 18)",
        "group": "gnss",
        "lat": -19.65881545937179,
        "lon": 172.45934243174815,
        "alt_km": 20032.422327288386,
        "timestamp": "2025-12-17T10:52:54.596588+00:00",
        "meta_object_name": "GPS BIII-2  (PRN 18)",
        "meta_object_id": "2019-056A",
        "meta_epoch": "2025-12-16T09:52:28.741728",
        "meta_mean_motion": 2.00566563,
        "meta_eccentricity": 0.00577066,
        "meta_inclination": 55.7201,
        "meta_ra_of_asc_node": 338.4066,
        "meta_arg_of_pericenter": 198.4994,
        "meta_mean_anomaly": 333.0667,
        "meta_ephemeris_type": 0,
        "meta_classification_type": "U",
        "meta_norad_cat_id": 44506,
        "meta_element_set_no": 999,
        "meta_rev_at_epoch": 4640,
        "meta_bstar": 0,
        "meta_mean_motion_dot": -8.9e-07,
        "meta_mean_motion_ddot": 0,
        "tle_line1": "1 44506U 19056A   25350.41144377 -.00000089  00000+0  00000+0 0  9992",
        "tle_line2": "2 44506  55.7201 338.4066 0057706 198.4994 333.0667  2.00566563 46405"
      },
      "geometry": {
        "type": "Point",
        "coordinates": [
          172.45934243174815,
          -19.65881545937179
        ]
      }
    },
    {
      "type": "Feature",
      "properties": {
        "norad_id": 44542,
        "name": "BEIDOU-3 M24 (C46)",
        "group": "gnss",
        "lat": 15.969322313875146,
        "lon": -2.971389454210894,
        "alt_km": 21545.39657602521,
        "timestamp": "2025-12-17T10:52:54.596602+00:00",
        "meta_object_name": "BEIDOU-3 M24 (C46)",
        "meta_object_id": "2019-061A",
        "meta_epoch": "2025-12-16T03:22:44.327712",
        "meta_mean_motion": 1.86229353,
        "meta_eccentricity": 0.00096014,
        "meta_inclination": 54.4001,
        "meta_ra_of_asc_node": 188.9011,
        "meta_arg_of_pericenter": 24.8001,
        "meta_mean_anomaly": 335.316,
        "meta_ephemeris_type": 0,
        "meta_classification_type": "U",
        "meta_norad_cat_id": 44542,
        "meta_element_set_no": 999,
        "meta_rev_at_epoch": 4238,
        "meta_bstar": 0,
        "meta_mean_motion_dot": 1.15e-06,
        "meta_mean_motion_ddot": 0,
        "tle_line1": "1 44542U 19061A   25350.14079083  .00000115  00000+0  00000+0 0  9998",
        "tle_line2": "2 44542  54.4001 188.9011 0009601  24.8001 335.3160  1.86229353 42381"
      },
      "geometry": {
        "type": "Point",
        "coordinates": [
          -2.971389454210894,
          15.969322313875146
        ]
      }
    },
    {
      "type": "Feature",
      "properties": {
        "norad_id": 44543,
        "name": "BEIDOU-3 M23 (C45)",
        "group": "gnss",
        "lat": 50.97231772007761,
        "lon": -109.01419920379348,
        "alt_km": 21511.038879511474,
        "timestamp": "2025-12-17T10:52:54.596613+00:00",
        "meta_object_name": "BEIDOU-3 M23 (C45)",
        "meta_object_id": "2019-061B",
        "meta_epoch": "2025-12-16T19:20:04.225344",
        "meta_mean_motion": 1.86227685,
        "meta_eccentricity": 0.00060954,
        "meta_inclination": 54.399,
        "meta_ra_of_asc_node": 188.847,
        "meta_arg_of_pericenter": 24.4715,
        "meta_mean_anomaly": 334.1063,
        "meta_ephemeris_type": 0,
        "meta_classification_type": "U",
        "meta_norad_cat_id": 44543,
        "meta_element_set_no": 999,
        "meta_rev_at_epoch": 4239,
        "meta_bstar": 0,
        "meta_mean_motion_dot": 1.15e-06,
        "meta_mean_motion_ddot": 0,
        "tle_line1": "1 44543U 19061B   25350.80560446  .00000115  00000+0  00000+0 0  9990",
        "tle_line2": "2 44543  54.3990 188.8470 0006095  24.4715 334.1063  1.86227685 42394"
      },
      "geometry": {
        "type": "Point",
        "coordinates": [
          -109.01419920379348,
          50.97231772007761
        ]
      }
    }
  ]
}